import axios from 'axios';

export interface TLEData {
  noradId: number;
  name: string;
  tle1: string;
  tle2: string;
  category: 'weather' | 'comm' | 'nav' | 'iss' | 'science' | 'debris';
  owner: string;
}

interface TLECache {
  data: TLEData[];
  lastUpdated: Date;
}

let tleCache: TLECache | null = null;

const NOTABLE_SATELLITES: Record<number, { category: TLEData['category']; owner: string }> = {
  25544: { category: 'iss', owner: 'NASA/Roscosmos' },
  48274: { category: 'iss', owner: 'CNSA' },
  20580: { category: 'science', owner: 'NASA' },
  27424: { category: 'science', owner: 'NASA' },
  43013: { category: 'nav', owner: 'USA' },
  41019: { category: 'nav', owner: 'USA' },
  40294: { category: 'nav', owner: 'USA' },
  39166: { category: 'nav', owner: 'USA' },
  37753: { category: 'nav', owner: 'USA' },
  32260: { category: 'nav', owner: 'USA' },
  28654: { category: 'nav', owner: 'USA' },
  26360: { category: 'nav', owner: 'USA' },
  24876: { category: 'nav', owner: 'USA' },
  22877: { category: 'nav', owner: 'USA' },
  28190: { category: 'nav', owner: 'USA' },
  29601: { category: 'weather', owner: 'USA' },
  33591: { category: 'weather', owner: 'USA' },
  35491: { category: 'weather', owner: 'USA' },
  36411: { category: 'weather', owner: 'USA' },
  41866: { category: 'weather', owner: 'USA' },
  43226: { category: 'weather', owner: 'USA' },
  44897: { category: 'comm', owner: 'SpaceX' },
  45044: { category: 'comm', owner: 'SpaceX' },
  45045: { category: 'comm', owner: 'SpaceX' },
  45046: { category: 'comm', owner: 'SpaceX' },
  45047: { category: 'comm', owner: 'SpaceX' },
  45048: { category: 'comm', owner: 'SpaceX' },
  45049: { category: 'comm', owner: 'SpaceX' },
  45050: { category: 'comm', owner: 'SpaceX' },
};

function parseTLEData(tleText: string): TLEData[] {
  const lines = tleText.trim().split('\n');
  const satellites: TLEData[] = [];

  for (let i = 0; i < lines.length; i += 3) {
    if (i + 2 >= lines.length) break;

    const name = lines[i].trim();
    const tle1 = lines[i + 1].trim();
    const tle2 = lines[i + 2].trim();

    if (!tle1.startsWith('1 ') || !tle2.startsWith('2 ')) continue;

    const noradIdMatch = tle1.match(/^1\s+(\d+)/);
    if (!noradIdMatch) continue;

    const noradId = parseInt(noradIdMatch[1], 10);
    const satInfo = NOTABLE_SATELLITES[noradId];

    satellites.push({
      noradId,
      name,
      tle1,
      tle2,
      category: satInfo?.category || 'science',
      owner: satInfo?.owner || 'Unknown',
    });
  }

  return satellites;
}

const FALLBACK_TLE_DATA = `ISS (ZARYA)
1 25544U 98067A   24070.50000000  .00016717  00000-0  30000-3 0  9991
2 25544  51.6400 200.0000 0005000  90.0000 270.0000 15.50000000400000
TIANGONG
1 48274U 21035A   24070.50000000  .00020000  00000-0  25000-3 0  9991
2 48274  41.4700 150.0000 0005000 100.0000 260.0000 15.60000000300000
CSS (TIANHE)
1 48275U 21035B   24070.50000000  .00018000  00000-0  22000-3 0  9991
2 48275  41.4600 155.0000 0004000  95.0000 265.0000 15.58000000280000
GOES 16
1 41866U 16071A   24070.50000000  .00000100  00000-0  00000-0 0  9991
2 41866   0.0500 270.0000 0001000  90.0000 270.0000  1.00270000500000
GOES 17
1 43226U 18022A   24070.50000000  .00000100  00000-0  00000-0 0  9991
2 43226   0.0300 225.0000 0001000  90.0000 270.0000  1.00270000400000
GOES 18
1 51850U 22021A   24070.50000000  .00000100  00000-0  00000-0 0  9991
2 51850   0.0400 235.0000 0001000  90.0000 270.0000  1.00270000300000
NOAA 15
1 25338U 98030A   24070.50000000  .00000080  00000-0  45000-4 0  9991
2 25338  98.7300  80.0000 0010000  90.0000 270.0000 14.26000000900000
NOAA 18
1 28654U 05018A   24070.50000000  .00000090  00000-0  48000-4 0  9991
2 28654  99.0400 120.0000 0012000  90.0000 270.0000 14.12000000850000
NOAA 19
1 33591U 09005A   24070.50000000  .00000100  00000-0  50000-4 0  9991
2 33591  99.1900 100.0000 0014000  90.0000 270.0000 14.12000000800000
NOAA 20
1 43013U 17073A   24070.50000000  .00000100  00000-0  52000-4 0  9991
2 43013  98.7000 140.0000 0001000  90.0000 270.0000 14.19000000700000
METOP-A
1 29499U 06044A   24070.50000000  .00000100  00000-0  55000-4 0  9991
2 29499  98.6000 160.0000 0002000  90.0000 270.0000 14.21000000750000
METOP-B
1 38771U 12049A   24070.50000000  .00000100  00000-0  53000-4 0  9991
2 38771  98.7000 180.0000 0001000  90.0000 270.0000 14.21000000650000
METOP-C
1 43689U 18087A   24070.50000000  .00000100  00000-0  51000-4 0  9991
2 43689  98.7000 200.0000 0002000  90.0000 270.0000 14.21000000550000
NAVSTAR 63 (USA 203)
1 32711U 08012A   24070.50000000  .00000010  00000-0  00000-0 0  9991
2 32711  55.4000  30.0000 0080000  90.0000 270.0000  2.00560000600000
NAVSTAR 64 (USA 206)
1 32384U 07062A   24070.50000000  .00000010  00000-0  00000-0 0  9991
2 32384  55.0000  90.0000 0060000  90.0000 270.0000  2.00560000580000
NAVSTAR 65 (USA 213)
1 35752U 09043A   24070.50000000  .00000010  00000-0  00000-0 0  9991
2 35752  54.5000 150.0000 0050000  90.0000 270.0000  2.00560000560000
NAVSTAR 66 (USA 232)
1 37753U 11036A   24070.50000000  .00000010  00000-0  00000-0 0  9991
2 37753  55.0000 210.0000 0040000  90.0000 270.0000  2.00560000540000
NAVSTAR 67 (USA 239)
1 38833U 12053A   24070.50000000  .00000010  00000-0  00000-0 0  9991
2 38833  54.8000 270.0000 0030000  90.0000 270.0000  2.00560000520000
NAVSTAR 68 (USA 242)
1 39166U 13023A   24070.50000000  .00000010  00000-0  00000-0 0  9991
2 39166  55.0000 330.0000 0020000  90.0000 270.0000  2.00560000500000
NAVSTAR 72 (USA 258)
1 40534U 15013A   24070.50000000  .00000010  00000-0  00000-0 0  9991
2 40534  55.0000  60.0000 0005000  90.0000 270.0000  2.00560000480000
NAVSTAR 73 (USA 260)
1 40730U 15033A   24070.50000000  .00000010  00000-0  00000-0 0  9991
2 40730  55.0000 120.0000 0005000  90.0000 270.0000  2.00560000460000
NAVSTAR 74 (USA 262)
1 41019U 15062A   24070.50000000  .00000010  00000-0  00000-0 0  9991
2 41019  55.0000 180.0000 0005000  90.0000 270.0000  2.00560000440000
NAVSTAR 75 (USA 265)
1 41328U 16007A   24070.50000000  .00000010  00000-0  00000-0 0  9991
2 41328  55.0000 240.0000 0005000  90.0000 270.0000  2.00560000420000
NAVSTAR 76 (USA 266)
1 41866U 16030A   24070.50000000  .00000010  00000-0  00000-0 0  9991
2 41866  55.0000 300.0000 0005000  90.0000 270.0000  2.00560000400000
NAVSTAR 77 (USA 289)
1 43873U 18109A   24070.50000000  .00000010  00000-0  00000-0 0  9991
2 43873  55.0000  15.0000 0005000  90.0000 270.0000  2.00560000380000
NAVSTAR 78 (USA 293)
1 44506U 19056A   24070.50000000  .00000010  00000-0  00000-0 0  9991
2 44506  55.0000  75.0000 0005000  90.0000 270.0000  2.00560000360000
NAVSTAR 79 (USA 304)
1 45854U 20041A   24070.50000000  .00000010  00000-0  00000-0 0  9991
2 45854  55.0000 135.0000 0005000  90.0000 270.0000  2.00560000340000
NAVSTAR 80 (USA 309)
1 46826U 20078A   24070.50000000  .00000010  00000-0  00000-0 0  9991
2 46826  55.0000 195.0000 0005000  90.0000 270.0000  2.00560000320000
NAVSTAR 81 (USA 319)
1 48859U 21054A   24070.50000000  .00000010  00000-0  00000-0 0  9991
2 48859  55.0000 255.0000 0005000  90.0000 270.0000  2.00560000300000
STARLINK-1007
1 44713U 19074A   24070.50000000  .00010000  00000-0  50000-4 0  9991
2 44713  53.0000  10.0000 0001000  90.0000 270.0000 15.05000000300000
STARLINK-1008
1 44714U 19074B   24070.50000000  .00010000  00000-0  50000-4 0  9991
2 44714  53.0000  20.0000 0001000  90.0000 270.0000 15.05000000290000
STARLINK-1009
1 44715U 19074C   24070.50000000  .00010000  00000-0  50000-4 0  9991
2 44715  53.0000  30.0000 0001000  90.0000 270.0000 15.05000000280000
STARLINK-1010
1 44716U 19074D   24070.50000000  .00010000  00000-0  50000-4 0  9991
2 44716  53.0000  40.0000 0001000  90.0000 270.0000 15.05000000270000
STARLINK-1011
1 44717U 19074E   24070.50000000  .00010000  00000-0  50000-4 0  9991
2 44717  53.0000  50.0000 0001000  90.0000 270.0000 15.05000000260000
STARLINK-1012
1 44718U 19074F   24070.50000000  .00010000  00000-0  50000-4 0  9991
2 44718  53.0000  60.0000 0001000  90.0000 270.0000 15.05000000250000
STARLINK-1013
1 44719U 19074G   24070.50000000  .00010000  00000-0  50000-4 0  9991
2 44719  53.0000  70.0000 0001000  90.0000 270.0000 15.05000000240000
STARLINK-1014
1 44720U 19074H   24070.50000000  .00010000  00000-0  50000-4 0  9991
2 44720  53.0000  80.0000 0001000  90.0000 270.0000 15.05000000230000
STARLINK-1015
1 44721U 19074J   24070.50000000  .00010000  00000-0  50000-4 0  9991
2 44721  53.0000  90.0000 0001000  90.0000 270.0000 15.05000000220000
STARLINK-1016
1 44722U 19074K   24070.50000000  .00010000  00000-0  50000-4 0  9991
2 44722  53.0000 100.0000 0001000  90.0000 270.0000 15.05000000210000
STARLINK-1017
1 44723U 19074L   24070.50000000  .00010000  00000-0  50000-4 0  9991
2 44723  53.0000 110.0000 0001000  90.0000 270.0000 15.05000000200000
STARLINK-1018
1 44724U 19074M   24070.50000000  .00010000  00000-0  50000-4 0  9991
2 44724  53.0000 120.0000 0001000  90.0000 270.0000 15.05000000190000
STARLINK-1019
1 44725U 19074N   24070.50000000  .00010000  00000-0  50000-4 0  9991
2 44725  53.0000 130.0000 0001000  90.0000 270.0000 15.05000000180000
STARLINK-1020
1 44726U 19074P   24070.50000000  .00010000  00000-0  50000-4 0  9991
2 44726  53.0000 140.0000 0001000  90.0000 270.0000 15.05000000170000
STARLINK-1021
1 44727U 19074Q   24070.50000000  .00010000  00000-0  50000-4 0  9991
2 44727  53.0000 150.0000 0001000  90.0000 270.0000 15.05000000160000
STARLINK-1022
1 44728U 19074R   24070.50000000  .00010000  00000-0  50000-4 0  9991
2 44728  53.0000 160.0000 0001000  90.0000 270.0000 15.05000000150000
STARLINK-1023
1 44729U 19074S   24070.50000000  .00010000  00000-0  50000-4 0  9991
2 44729  53.0000 170.0000 0001000  90.0000 270.0000 15.05000000140000
STARLINK-1024
1 44730U 19074T   24070.50000000  .00010000  00000-0  50000-4 0  9991
2 44730  53.0000 180.0000 0001000  90.0000 270.0000 15.05000000130000
